[{"OBJECT_NAME":"XINGYUN-2 01","OBJECT_ID":"2020-028A","EPOCH":"2026-03-09T23:27:57.512736","MEAN_MOTION":15.11323975,"ECCENTRICITY":0.00090563,"INCLINATION":97.4853,"RA_OF_ASC_NODE":63.3977,"ARG_OF_PERICENTER":174.572,"MEAN_ANOMALY":185.561,"EPHEMERIS_TYPE":0,"CLASSIFICATION_TYPE":"U","NORAD_CAT_ID":45602,"ELEMENT_SET_NO":999,"REV_AT_EPOCH":31985,"BSTAR":0.000253969,"MEAN_MOTION_DOT":4.22e-5,"MEAN_MOTION_DDOT":0},{"OBJECT_NAME":"STARLINK-3867","OBJECT_ID":"2022-051BD","EPOCH":"2026-03-09T12:19:03.360576","MEAN_MOTION":15.08845887,"ECCENTRICITY":0.00015785,"INCLINATION":53.2172,"RA_OF_ASC_NODE":119.7694,"ARG_OF_PERICENTER":93.2219,"MEAN_ANOMALY":266.8953,"EPHEMERIS_TYPE":0,"CLASSIFICATION_TYPE":"U","NORAD_CAT_ID":52587,"ELEMENT_SET_NO":999,"REV_AT_EPOCH":21156,"BSTAR":0.00026777046,"MEAN_MOTION_DOT":3.977e-5,"MEAN_MOTION_DDOT":0}]
